{"type": "FeatureCollection", "features": [ {"type": "Feature", "properties": {"norad_id": 34014, "name": "COSMOS 2251 DEB", "group": "cosmos-2251-debris", "lat": -54.044828805323164, "lon": 103.1850801448925, "alt_km": 681.9591715206652, "timestamp": "2025-12-23T09:49:07.476371+00:00", "meta": {"OBJECT_NAME": "COSMOS 2251 DEB", "OBJECT_ID": "1993-036GZ", "EPOCH": "2025-12-22T03:43:38.357184", "MEAN_MOTION": 14.73241983, "ECCENTRICITY": 0.00374339, "INCLINATION": 74.0173, "RA_OF_ASC_NODE": 262.3559, "ARG_OF_PERICENTER": 39.3733, "MEAN_ANOMALY": 31.0077, "EPHEMERIS_TYPE": 0, "CLASSIFICATION_TYPE": "U", "NORAD_CAT_ID": 34014, "ELEMENT_SET_NO": 999, "REV_AT_EPOCH": 89442, "BSTAR": 0.0008905225, "MEAN_MOTION_DOT": 5.788e-05, "MEAN_MOTION_DDOT": 0}, "tle": {"line1": "1 34014U 93036GZ  25356.15530506  .00005788  00000+0  89052-3 0  9993", "line2": "2 34014  74.0173 262.3559 0037433  39.3733  31.0077 14.73241983894423"}}, "geometry": {"type": "Point", "coordinates": [103.1850801448925, -54.044828805323164]}}, {"type": "Feature", "properties": {"norad_id": 34015, "name": "COSMOS 2251 DEB", "group": "cosmos-2251-debris", "lat": -37.58659687881299, "lon": -28.220035813601246, "alt_km": 683.7755818518526, "timestamp": "2025-12-23T09:49:07.476381+00:00", "meta": {"OBJECT_NAME": "COSMOS 2251 DEB", "OBJECT_ID": "1993-036HA", "EPOCH": "2025-12-22T20:12:20.020896", "MEAN_MOTION": 14.60369395, "ECCENTRICITY": 0.00209819, "INCLINATION": 74.0244, "RA_OF_ASC_NODE": 140.1244, "ARG_OF_PERICENTER": 236.9409, "MEAN_ANOMALY": 241.5911, "EPHEMERIS_TYPE": 0, "CLASSIFICATION_TYPE": "U", "NORAD_CAT_ID": 34015, "ELEMENT_SET_NO": 999, "REV_AT_EPOCH": 88678, "BSTAR": 0.0012041911, "MEAN_MOTION_DOT": 5.818e-05, "MEAN_MOTION_DDOT": 0}, "tle": {"line1": "1 34015U 93036HA  25356.84189839  .00005818  00000+0  12042-2 0  9997", "line2": "2 34015  74.0244 140.1244 0020981 236.9409 241.5911 14.60369395886781"}}, "geometry": {"type": "Point", "coordinates": [-28.220035813601246, -37.58659687881299]}}, {"type": "Feature", "properties": {"norad_id": 34018, "name": "COSMOS 2251 DEB", "group": "cosmos-2251-debris", "lat": -23.160236267193046, "lon": -98.87675257653555, "alt_km": 980.887944588253, "timestamp": "2025-12-23T09:49:07.476391+00:00", "meta": {"OBJECT_NAME": "COSMOS 2251 DEB", "OBJECT_ID": "1993-036HD", "EPOCH": "2025-12-22T16:03:08.756640", "MEAN_MOTION": 13.81082556, "ECCENTRICITY": 0.02632203, "INCLINATION": 73.878, "RA_OF_ASC_NODE": 75.2701, "ARG_OF_PERICENTER": 109.2521, "MEAN_ANOMALY": 12.6838, "EPHEMERIS_TYPE": 0, "CLASSIFICATION_TYPE": "U", "NORAD_CAT_ID": 34018, "ELEMENT_SET_NO": 999, "REV_AT_EPOCH": 84794, "BSTAR": 0.00032313979, "MEAN_MOTION_DOT": 4.23e-06, "MEAN_MOTION_DDOT": 0}, "tle": {"line1": "1 34018U 93036HD  25356.66885135  .00000423  00000+0  32314-3 0  9994", "line2": "2 34018  73.8780  75.2701 0263220 109.2521  12.6838 13.81082556847947"}}, "geometry": {"type": "Point", "coordinates": [-98.87675257653555, -23.160236267193046]}}, {"type": "Feature", "properties": {"norad_id": 34019, "name": "COSMOS 2251 DEB", "group": "cosmos-2251-debris", "lat": -14.790519757323816, "lon": -144.5237119905943, "alt_km": 739.749456759564, "timestamp": "2025-12-23T09:49:07.476402+00:00", "meta": {"OBJECT_NAME": "COSMOS 2251 DEB", "OBJECT_ID": "1993-036HE", "EPOCH": "2025-12-22T20:20:18.510144", "MEAN_MOTION": 14.33979606, "ECCENTRICITY": 0.00623066, "INCLINATION": 73.9532, "RA_OF_ASC_NODE": 32.1506, "ARG_OF_PERICENTER": 211.8358, "MEAN_ANOMALY": 325.2344, "EPHEMERIS_TYPE": 0, "CLASSIFICATION_TYPE": "U", "NORAD_CAT_ID": 34019, "ELEMENT_SET_NO": 999, "REV_AT_EPOCH": 87665, "BSTAR": 0.00063853649, "MEAN_MOTION_DOT": 1.795e-05, "MEAN_MOTION_DDOT": 0}, "tle": {"line1": "1 34019U 93036HE  25356.84743646  .00001795  00000+0  63854-3 0  9991", "line2": "2 34019  73.9532  32.1506 0062306 211.8358 325.2344 14.33979606876653"}}, "geometry": {"type": "Point", "coordinates": [-144.5237119905943, -14.790519757323816]}}, {"type": "Feature", "properties": {"norad_id": 34021, "name": "COSMOS 2251 DEB", "group": "cosmos-2251-debris", "lat": -8.254656775051602, "lon": -67.823155202584, "alt_km": 722.801249044147, "timestamp": "2025-12-23T09:49:07.476412+00:00", "meta": {"OBJECT_NAME": "COSMOS 2251 DEB", "OBJECT_ID": "1993-036HG", "EPOCH": "2025-12-21T09:11:27.909888", "MEAN_MOTION": 14.4997632, "ECCENTRICITY": 0.00209884, "INCLINATION": 74.036, "RA_OF_ASC_NODE": 113.5998, "ARG_OF_PERICENTER": 256.8538, "MEAN_ANOMALY": 159.7796, "EPHEMERIS_TYPE": 0, "CLASSIFICATION_TYPE": "U", "NORAD_CAT_ID": 34021, "ELEMENT_SET_NO": 999, "REV_AT_EPOCH": 88755, "BSTAR": 0.00036322987, "MEAN_MOTION_DOT": 1.382e-05, "MEAN_MOTION_DDOT": 0}, "tle": {"line1": "1 34021U 93036HG  25355.38296192  .00001382  00000+0  36323-3 0  9994", "line2": "2 34021  74.0360 113.5998 0020988 256.8538 159.7796 14.49976320887554"}}, "geometry": {"type": "Point", "coordinates": [-67.823155202584, -8.254656775051602]}}, {"type": "Feature", "properties": {"norad_id": 34022, "name": "COSMOS 2251 DEB", "group": "cosmos-2251-debris", "lat": -53.838384873039246, "lon": -131.8926742163367, "alt_km": 752.4124628641039, "timestamp": "2025-12-23T09:49:07.476423+00:00", "meta": {"OBJECT_NAME": "COSMOS 2251 DEB", "OBJECT_ID": "1993-036HH", "EPOCH": "2025-12-22T17:29:14.286912", "MEAN_MOTION": 14.38976963, "ECCENTRICITY": 0.00230176, "INCLINATION": 74.0539, "RA_OF_ASC_NODE": 252.3899, "ARG_OF_PERICENTER": 315.7419, "MEAN_ANOMALY": 63.6061, "EPHEMERIS_TYPE": 0, "CLASSIFICATION_TYPE": "U", "NORAD_CAT_ID": 34022, "ELEMENT_SET_NO": 999, "REV_AT_EPOCH": 88339, "BSTAR": 0.00018174649, "MEAN_MOTION_DOT": 5.36e-06, "MEAN_MOTION_DDOT": 0}, "tle": {"line1": "1 34022U 93036HH  25356.72863758  .00000536  00000+0  18175-3 0  9997", "line2": "2 34022  74.0539 252.3899 0023017 315.7419  63.6061 14.38976963883391"}}, "geometry": {"type": "Point", "coordinates": [-131.8926742163367, -53.838384873039246]}}, {"type": "Feature", "properties": {"norad_id": 34023, "name": "COSMOS 2251 DEB", "group": "cosmos-2251-debris", "lat": -69.04864932928831, "lon": -176.43558561134276, "alt_km": 753.545932948824, "timestamp": "2025-12-23T09:49:07.476433+00:00", "meta": {"OBJECT_NAME": "COSMOS 2251 DEB", "OBJECT_ID": "1993-036HJ", "EPOCH": "2025-12-22T17:47:47.090400", "MEAN_MOTION": 14.40579757, "ECCENTRICITY": 0.00188339, "INCLINATION": 74.0241, "RA_OF_ASC_NODE": 233.2337, "ARG_OF_PERICENTER": 327.4458, "MEAN_ANOMALY": 95.6326, "EPHEMERIS_TYPE": 0, "CLASSIFICATION_TYPE": "U", "NORAD_CAT_ID": 34023, "ELEMENT_SET_NO": 999, "REV_AT_EPOCH": 88358, "BSTAR": 0.00023696647, "MEAN_MOTION_DOT": 7.3e-06, "MEAN_MOTION_DDOT": 0}, "tle": {"line1": "1 34023U 93036HJ  25356.74151725  .00000730  00000+0  23697-3 0  9995", "line2": "2 34023  74.0241 233.2337 0018833 327.4458  95.6326 14.40579757883583"}}, "geometry": {"type": "Point", "coordinates": [-176.43558561134276, -69.04864932928831]}}, {"type": "Feature", "properties": {"norad_id": 34024, "name": "COSMOS 2251 DEB", "group": "cosmos-2251-debris", "lat": 73.24017912138481, "lon": 44.663745313130555, "alt_km": 771.6477869367682, "timestamp": "2025-12-23T09:49:07.476443+00:00", "meta": {"OBJECT_NAME": "COSMOS 2251 DEB", "OBJECT_ID": "1993-036HK", "EPOCH": "2025-12-22T20:18:46.742112", "MEAN_MOTION": 14.35406694, "ECCENTRICITY": 0.00214844, "INCLINATION": 74.0469, "RA_OF_ASC_NODE": 297.469, "ARG_OF_PERICENTER": 346.0236, "MEAN_ANOMALY": 82.141, "EPHEMERIS_TYPE": 0, "CLASSIFICATION_TYPE": "U", "NORAD_CAT_ID": 34024, "ELEMENT_SET_NO": 999, "REV_AT_EPOCH": 88169, "BSTAR": 0.00016063394, "MEAN_MOTION_DOT": 4.36e-06, "MEAN_MOTION_DDOT": 0}, "tle": {"line1": "1 34024U 93036HK  25356.84637433  .00000436  00000+0  16063-3 0  9994", "line2": "2 34024  74.0469 297.4690 0021484 346.0236  82.1410 14.35406694881695"}}, "geometry": {"type": "Point", "coordinates": [44.663745313130555, 73.24017912138481]}}, {"type": "Feature", "properties": {"norad_id": 34026, "name": "COSMOS 2251 DEB", "group": "cosmos-2251-debris", "lat": 8.380207589578987, "lon": 137.08367640456692, "alt_km": 769.3956838047952, "timestamp": "2025-12-23T09:49:07.476454+00:00", "meta": {"OBJECT_NAME": "COSMOS 2251 DEB", "OBJECT_ID": "1993-036HM", "EPOCH": "2025-12-22T22:43:25.146912", "MEAN_MOTION": 13.65321055, "ECCENTRICITY": 0.03497316, "INCLINATION": 73.7669, "RA_OF_ASC_NODE": 320.3118, "ARG_OF_PERICENTER": 188.7651, "MEAN_ANOMALY": 232.1059, "EPHEMERIS_TYPE": 0, "CLASSIFICATION_TYPE": "U", "NORAD_CAT_ID": 34026, "ELEMENT_SET_NO": 999, "REV_AT_EPOCH": 83671, "BSTAR": 0.00042859043, "MEAN_MOTION_DOT": 5.06e-06, "MEAN_MOTION_DDOT": 0}, "tle": {"line1": "1 34026U 93036HM  25356.94681883  .00000506  00000+0  42859-3 0  9995", "line2": "2 34026  73.7669 320.3118 0349731 188.7651 232.1059 13.65321055836714"}}, "geometry": {"type": "Point", "coordinates": [137.08367640456692, 8.380207589578987]}}, {"type": "Feature", "properties": {"norad_id": 34028, "name": "COSMOS 2251 DEB", "group": "cosmos-2251-debris", "lat": -73.27656783398601, "lon": -103.30915263548823, "alt_km": 1589.5720444543185, "timestamp": "2025-12-23T09:49:07.476466+00:00", "meta": {"OBJECT_NAME": "COSMOS 2251 DEB", "OBJECT_ID": "1993-036HP", "EPOCH": "2025-12-22T16:59:04.968096", "MEAN_MOTION": 13.2063106, "ECCENTRICITY": 0.05434982, "INCLINATION": 73.8837, "RA_OF_ASC_NODE": 331.9681, "ARG_OF_PERICENTER": 108.1019, "MEAN_ANOMALY": 71.4676, "EPHEMERIS_TYPE": 0, "CLASSIFICATION_TYPE": "U", "NORAD_CAT_ID": 34028, "ELEMENT_SET_NO": 999, "REV_AT_EPOCH": 81139, "BSTAR": 0.00043372489, "MEAN_MOTION_DOT": 3.66e-06, "MEAN_MOTION_DDOT": 0}, "tle": {"line1": "1 34028U 93036HP  25356.70769639  .00000366  00000+0  43372-3 0  9992", "line2": "2 34028  73.8837 331.9681 0543498 108.1019  71.4676 13.20631060811394"}}, "geometry": {"type": "Point", "coordinates": [-103.30915263548823, -73.27656783398601]}}]}